ONEWEB-0612             
1 54675U 22166AK  23278.85407531  .00000016  00000+0  74974-5 0  9991
2 54675  87.9177  80.1363 0001427 102.4520 257.6774 13.21825708 41737
ONEWEB-0615             
1 54676U 22166AL  23278.91083685  .00000006  00000+0 -17013-4 0  9999
2 54676  87.9190  80.1371 0001832  98.0225 262.1117 13.21823662 41283
ONEWEB-0655             
1 54677U 22166AM  23278.96129116  .00002672  00000+0  64344-2 0  9992
2 54677  87.9182  80.1347 0001790  99.9840 260.1496 13.21847590 41750
ONEWEB-0659             
1 54678U 22166AN  23278.90244677  .00001126  00000+0  26944-2 0  9994
2 54678  87.9161  80.1751 0001627  81.5575 278.5744 13.21820194 41365
ONEWEB-0685             
1 54679U 22166AP  23278.90453095 -.00000240  00000+0 -61179-3 0  9999
2 54679  87.9187  80.1383 0002208 113.9799 246.1566 13.21826239 41256
ONEWEB-0712             
1 54680U 22166AQ  23278.86659347  .00002614  00000+0  68039-2 0  9990
2 54680  87.9076  64.8268 0002034  81.6617 278.4744 13.16583037 42867
ONEWEB-0714             
1 54681U 22166AR  23278.90873246 -.00000003  00000+0 -39657-4 0  9990
2 54681  87.9180  80.1275 0001893 101.7000 258.4346 13.21824316 41370
ONEWEB-0532             
1 55140U 23004A   23278.83659161  .00000069  00000+0  14494-3 0  9994
2 55140  87.9249 201.6693 0000984  82.9274 277.1969 13.17652230 37827
